[{"OBJECT_NAME":"INTELSAT 4-F4","OBJECT_ID":"1972-003A","EPOCH":"2026-03-06T12:03:31.084704","MEAN_MOTION":0.99834832,"ECCENTRICITY":0.00019829,"INCLINATION":6.9864,"RA_OF_ASC_NODE":295.2243,"ARG_OF_PERICENTER":81.0981,"MEAN_ANOMALY":289.4335,"EPHEMERIS_TYPE":0,"CLASSIFICATION_TYPE":"U","NORAD_CAT_ID":5775,"ELEMENT_SET_NO":999,"REV_AT_EPOCH":13637,"BSTAR":0,"MEAN_MOTION_DOT":-2.84e-6,"MEAN_MOTION_DDOT":0},{"OBJECT_NAME":"OPS 1570 (DSP 3)","OBJECT_ID":"1972-010A","EPOCH":"2026-03-06T19:04:05.092032","MEAN_MOTION":0.99783779,"ECCENTRICITY":0.0010537,"INCLINATION":0.1635,"RA_OF_ASC_NODE":120.8686,"ARG_OF_PERICENTER":166.3521,"MEAN_ANOMALY":158.0407,"EPHEMERIS_TYPE":0,"CLASSIFICATION_TYPE":"U","NORAD_CAT_ID":5851,"ELEMENT_SET_NO":999,"REV_AT_EPOCH":2490,"BSTAR":0,"MEAN_MOTION_DOT":-1.3e-6,"MEAN_MOTION_DDOT":0},{"OBJECT_NAME":"INTELSAT 4-F5","OBJECT_ID":"1972-041A","EPOCH":"2026-03-05T16:27:50.420736","MEAN_MOTION":1.00094353,"ECCENTRICITY":0.00034526,"INCLINATION":5.9845,"RA_OF_ASC_NODE":287.8005,"ARG_OF_PERICENTER":326.0634,"MEAN_ANOMALY":33.7502,"EPHEMERIS_TYPE":0,"CLASSIFICATION_TYPE":"U","NORAD_CAT_ID":6052,"ELEMENT_SET_NO":999,"REV_AT_EPOCH":4562,"BSTAR":0,"MEAN_MOTION_DOT":3.2e-7,"MEAN_MOTION_DDOT":0},{"OBJECT_NAME":"OPS 6063","OBJECT_ID":"1973-013A","EPOCH":"2026-03-06T14:19:09.911136","MEAN_MOTION":1.00275095,"ECCENTRICITY":0.00123838,"INCLINATION":0.6027,"RA_OF_ASC_NODE":250.3457,"ARG_OF_PERICENTER":284.8228,"MEAN_ANOMALY":279.9319,"EPHEMERIS_TYPE":0,"CLASSIFICATION_TYPE":"U","NORAD_CAT_ID":6380,"ELEMENT_SET_NO":999,"REV_AT_EPOCH":2539,"BSTAR":0,"MEAN_MOTION_DOT":-1.01e-6,"MEAN_MOTION_DDOT":0},{"OBJECT_NAME":"ANIK A2 (TELESAT 2)","OBJECT_ID":"1973-023A","EPOCH":"2026-03-06T09:43:29.510688","MEAN_MOTION":0.99803336,"ECCENTRICITY":0.00118502,"INCLINATION":7.1694,"RA_OF_ASC_NODE":296.7035,"ARG_OF_PERICENTER":66.2244,"MEAN_ANOMALY":136.8376,"EPHEMERIS_TYPE":0,"CLASSIFICATION_TYPE":"U","NORAD_CAT_ID":6437,"ELEMENT_SET_NO":999,"REV_AT_EPOCH":4612,"BSTAR":0,"MEAN_MOTION_DOT":2.3e-7,"MEAN_MOTION_DDOT":0},{"OBJECT_NAME":"OPS 6157 (DSP 4)","OBJECT_ID":"1973-040A","EPOCH":"2026-03-06T18:13:38.703936","MEAN_MOTION":0.99829979,"ECCENTRICITY":0.0008597,"INCLINATION":1.1173,"RA_OF_ASC_NODE":232.4133,"ARG_OF_PERICENTER":63.2242,"MEAN_ANOMALY":314.3347,"EPHEMERIS_TYPE":0,"CLASSIFICATION_TYPE":"U","NORAD_CAT_ID":6691,"ELEMENT_SET_NO":999,"REV_AT_EPOCH":2492,"BSTAR":0,"MEAN_MOTION_DOT":-9.8e-7,"MEAN_MOTION_DDOT":0},{"OBJECT_NAME":"WESTAR 1","OBJECT_ID":"1974-022A","EPOCH":"2026-03-06T14:32:53.594304","MEAN_MOTION":0.99901082,"ECCENTRICITY":0.00067113,"INCLINATION":7.3403,"RA_OF_ASC_NODE":298.7572,"ARG_OF_PERICENTER":32.6913,"MEAN_ANOMALY":175.4059,"EPHEMERIS_TYPE":0,"CLASSIFICATION_TYPE":"U","NORAD_CAT_ID":7250,"ELEMENT_SET_NO":999,"REV_AT_EPOCH":12130,"BSTAR":0,"MEAN_MOTION_DOT":-3.6e-6,"MEAN_MOTION_DDOT":0},{"OBJECT_NAME":"MOLNIYA 1-S","OBJECT_ID":"1974-060A","EPOCH":"2026-03-06T19:32:09.898944","MEAN_MOTION":1.00331803,"ECCENTRICITY":0.0007618,"INCLINATION":1.6346,"RA_OF_ASC_NODE":254.6756,"ARG_OF_PERICENTER":282.7036,"MEAN_ANOMALY":13.2598,"EPHEMERIS_TYPE":0,"CLASSIFICATION_TYPE":"U","NORAD_CAT_ID":7392,"ELEMENT_SET_NO":999,"REV_AT_EPOCH":13314,"BSTAR":0,"MEAN_MOTION_DOT":-2.69e-6,"MEAN_MOTION_DDOT":0},{"OBJECT_NAME":"WESTAR 2","OBJECT_ID":"1974-075A","EPOCH":"2026-03-06T08:46:19.993152","MEAN_MOTION":0.99861982,"ECCENTRICITY":0.00016618,"INCLINATION":7.4892,"RA_OF_ASC_NODE":300.458,"ARG_OF_PERICENTER":250.7521,"MEAN_ANOMALY":93.5545,"EPHEMERIS_TYPE":0,"CLASSIFICATION_TYPE":"U","NORAD_CAT_ID":7466,"ELEMENT_SET_NO":999,"REV_AT_EPOCH":13662,"BSTAR":0,"MEAN_MOTION_DOT":-1.67e-6,"MEAN_MOTION_DDOT":0},{"OBJECT_NAME":"INTELSAT 4-F8","OBJECT_ID":"1974-093A","EPOCH":"2026-03-06T19:21:10.952064","MEAN_MOTION":0.99780814,"ECCENTRICITY":0.0001347,"INCLINATION":8.186,"RA_OF_ASC_NODE":305.2526,"ARG_OF_PERICENTER":231.7291,"MEAN_ANOMALY":332.815,"EPHEMERIS_TYPE":0,"CLASSIFICATION_TYPE":"U","NORAD_CAT_ID":7544,"ELEMENT_SET_NO":999,"REV_AT_EPOCH":12418,"BSTAR":0,"MEAN_MOTION_DOT":1.12e-6,"MEAN_MOTION_DDOT":0},{"OBJECT_NAME":"SKYNET 2B","OBJECT_ID":"1974-094A","EPOCH":"2026-03-06T19:21:18.440352","MEAN_MOTION":1.00383953,"ECCENTRICITY":2.81e-5,"INCLINATION":3.8296,"RA_OF_ASC_NODE":281.6033,"ARG_OF_PERICENTER":182.9505,"MEAN_ANOMALY":45.5996,"EPHEMERIS_TYPE":0,"CLASSIFICATION_TYPE":"U","NORAD_CAT_ID":7547,"ELEMENT_SET_NO":999,"REV_AT_EPOCH":12373,"BSTAR":0,"MEAN_MOTION_DOT":5.8e-7,"MEAN_MOTION_DDOT":0},{"OBJECT_NAME":"SYMPHONIE 1","OBJECT_ID":"1974-101A","EPOCH":"2026-03-06T19:16:41.383200","MEAN_MOTION":0.99949129,"ECCENTRICITY":0.0004525,"INCLINATION":4.8381,"RA_OF_ASC_NODE":278.3,"ARG_OF_PERICENTER":28.1213,"MEAN_ANOMALY":186.4624,"EPHEMERIS_TYPE":0,"CLASSIFICATION_TYPE":"U","NORAD_CAT_ID":7578,"ELEMENT_SET_NO":999,"REV_AT_EPOCH":11617,"BSTAR":0,"MEAN_MOTION_DOT":1.4e-6,"MEAN_MOTION_DDOT":0},{"OBJECT_NAME":"ANIK A3 (TELESAT 3)","OBJECT_ID":"1975-038A","EPOCH":"2026-03-06T12:04:58.313280","MEAN_MOTION":1.00031274,"ECCENTRICITY":0.00026465,"INCLINATION":7.9192,"RA_OF_ASC_NODE":303.4844,"ARG_OF_PERICENTER":19.9386,"MEAN_ANOMALY":95.5588,"EPHEMERIS_TYPE":0,"CLASSIFICATION_TYPE":"U","NORAD_CAT_ID":7790,"ELEMENT_SET_NO":999,"REV_AT_EPOCH":12893,"BSTAR":0,"MEAN_MOTION_DOT":-3.5e-7,"MEAN_MOTION_DDOT":0},{"OBJECT_NAME":"SYMPHONIE 2","OBJECT_ID":"1975-077A","EPOCH":"2026-03-06T08:08:18.640896","MEAN_MOTION":0.99968927,"ECCENTRICITY":0.00071593,"INCLINATION":4.3036,"RA_OF_ASC_NODE":275.9089,"ARG_OF_PERICENTER":42.64,"MEAN_ANOMALY":183.5613,"EPHEMERIS_TYPE":0,"CLASSIFICATION_TYPE":"U","NORAD_CAT_ID":8132,"ELEMENT_SET_NO":999,"REV_AT_EPOCH":14142,"BSTAR":0,"MEAN_MOTION_DOT":1.2e-6,"MEAN_MOTION_DDOT":0},{"OBJECT_NAME":"INTELSAT 4A-F1","OBJECT_ID":"1975-091A","EPOCH":"2026-03-06T14:09:58.552128","MEAN_MOTION":0.99920988,"ECCENTRICITY":0.00044464,"INCLINATION":8.0872,"RA_OF_ASC_NODE":304.9954,"ARG_OF_PERICENTER":281.0673,"MEAN_ANOMALY":249.7461,"EPHEMERIS_TYPE":0,"CLASSIFICATION_TYPE":"U","NORAD_CAT_ID":8330,"ELEMENT_SET_NO":999,"REV_AT_EPOCH":12044,"BSTAR":0,"MEAN_MOTION_DOT":-2.43e-6,"MEAN_MOTION_DDOT":0},{"OBJECT_NAME":"COSMOS 775","OBJECT_ID":"1975-097A","EPOCH":"2026-03-06T19:21:48.391776","MEAN_MOTION":1.00198816,"ECCENTRICITY":0.0009864,"INCLINATION":2.6236,"RA_OF_ASC_NODE":263.1456,"ARG_OF_PERICENTER":175.8562,"MEAN_ANOMALY":72.7049,"EPHEMERIS_TYPE":0,"CLASSIFICATION_TYPE":"U","NORAD_CAT_ID":8357,"ELEMENT_SET_NO":999,"REV_AT_EPOCH":13073,"BSTAR":0,"MEAN_MOTION_DOT":8.0e-7,"MEAN_MOTION_DDOT":0},{"OBJECT_NAME":"GOES 1 (SMS-C)","OBJECT_ID":"1975-100A","EPOCH":"2026-03-06T13:23:00.296448","MEAN_MOTION":1.00237864,"ECCENTRICITY":0.00053945,"INCLINATION":4.8691,"RA_OF_ASC_NODE":278.7247,"ARG_OF_PERICENTER":0.1507,"MEAN_ANOMALY":325.2364,"EPHEMERIS_TYPE":0,"CLASSIFICATION_TYPE":"U","NORAD_CAT_ID":8366,"ELEMENT_SET_NO":999,"REV_AT_EPOCH":18403,"BSTAR":0,"MEAN_MOTION_DOT":9.0e-8,"MEAN_MOTION_DDOT":0}]
