INTELSAT 4-F4           
1 05775U 72003A   26065.50244311 -.00000284  00000+0  00000+0 0  9998
2 05775   6.9864 295.2243 0001982  81.0981 289.4335  0.99834832136373
OPS 1570 (DSP 3)        
1 05851U 72010A   26065.79450338 -.00000130  00000+0  00000+0 0  9990
2 05851   0.1635 120.8686 0010537 166.3521 158.0407  0.99783779 24906
INTELSAT 4-F5           
1 06052U 72041A   26064.68600024  .00000032  00000+0  00000+0 0  9994
2 06052   5.9845 287.8005 0003452 326.0634  33.7502  1.00094353 45626
OPS 6063                
1 06380U 73013A   26065.59664249 -.00000101  00000+0  00000+0 0  9996
2 06380   0.6027 250.3457 0012383 284.8228 279.9319  1.00275095 25399
ANIK A2 (TELESAT 2)     
1 06437U 73023A   26065.40520267  .00000023  00000+0  00000+0 0  9993
2 06437   7.1694 296.7035 0011850  66.2244 136.8376  0.99803336 46128
OPS 6157 (DSP 4)        
1 06691U 73040A   26065.75947574 -.00000098  00000+0  00000+0 0  9999
2 06691   1.1173 232.4133 0008597  63.2242 314.3347  0.99829979 24927
WESTAR 1                
1 07250U 74022A   26065.60617586 -.00000360  00000+0  00000+0 0  9995
2 07250   7.3403 298.7572 0006711  32.6913 175.4059  0.99901082121308
MOLNIYA 1-S             
1 07392U 74060A   26065.81400346 -.00000269  00000+0  00000+0 0  9999
2 07392   1.6346 254.6756 0007618 282.7036  13.2598  1.00331803133147
WESTAR 2                
1 07466U 74075A   26065.36550918 -.00000167  00000+0  00000+0 0  9995
2 07466   7.4892 300.4580 0001661 250.7521  93.5545  0.99861982136622
INTELSAT 4-F8           
1 07544U 74093A   26065.80637676  .00000112  00000+0  00000+0 0  9997
2 07544   8.1860 305.2526 0001347 231.7291 332.8150  0.99780814124182
SKYNET 2B               
1 07547U 74094A   26065.80646343  .00000058  00000+0  00000+0 0  9991
2 07547   3.8296 281.6033 0000281 182.9505  45.5996  1.00383953123733
SYMPHONIE 1             
1 07578U 74101A   26065.80325675  .00000140  00000+0  00000+0 0  9998
2 07578   4.8381 278.3000 0004525  28.1213 186.4624  0.99949129116175
ANIK A3 (TELESAT 3)     
1 07790U 75038A   26065.50345270 -.00000035  00000+0  00000+0 0  9998
2 07790   7.9192 303.4844 0002646  19.9386  95.5588  1.00031274128934
SYMPHONIE 2             
1 08132U 75077A   26065.33910464  .00000120  00000+0  00000+0 0  9990
2 08132   4.3036 275.9089 0007159  42.6400 183.5613  0.99968927141428
INTELSAT 4A-F1          
1 08330U 75091A   26065.59026102 -.00000243  00000+0  00000+0 0  9998
2 08330   8.0872 304.9954 0004446 281.0673 249.7461  0.99920988120448
COSMOS 775              
1 08357U 75097A   26065.80681009  .00000080  00000+0  00000+0 0  9998
2 08357   2.6236 263.1456 0009864 175.8562  72.7049  1.00198816130739
GOES 1 (SMS-C)          
1 08366U 75100A   26065.55764232  .00000009  00000+0  00000+0 0  9996
2 08366   4.8691 278.7247 0005394   0.1507 325.2364  1.00237864184036
